{"type": "FeatureCollection", "features": [ {"type": "Feature", "properties": {"norad_id": 30283, "name": "FENGYUN 1C DEB", "group": "fengyun-1c-debris", "lat": -70.78155500428213, "lon": 129.7706799271624, "alt_km": 1021.9677456414956, "timestamp": "2025-12-08T13:49:32.067879+00:00", "meta": {"OBJECT_NAME": "FENGYUN 1C DEB", "OBJECT_ID": "1999-025YU", "EPOCH": "2025-12-08T05:49:24.932352", "MEAN_MOTION": 14.01973375, "ECCENTRICITY": 0.01852024, "INCLINATION": 98.8671, "RA_OF_ASC_NODE": 336.0495, "ARG_OF_PERICENTER": 55.7659, "MEAN_ANOMALY": 315.8884, "EPHEMERIS_TYPE": 0, "CLASSIFICATION_TYPE": "U", "NORAD_CAT_ID": 30283, "ELEMENT_SET_NO": 999, "REV_AT_EPOCH": 96628, "BSTAR": 0.00013454535, "MEAN_MOTION_DOT": 1.96e-06, "MEAN_MOTION_DDOT": 0}, "tle": {"line1": "1 30283U 99025YU  25342.24264968  .00000196  00000+0  13455-3 0  9994", "line2": "2 30283  98.8671 336.0495 0185202  55.7659 315.8884 14.01973375966280"}}, "geometry": {"type": "Point", "coordinates": [129.7706799271624, -70.78155500428213]}}, {"type": "Feature", "properties": {"norad_id": 30284, "name": "FENGYUN 1C DEB", "group": "fengyun-1c-debris", "lat": 70.98209844266319, "lon": 24.576621860505952, "alt_km": 770.7458320974256, "timestamp": "2025-12-08T13:49:32.067890+00:00", "meta": {"OBJECT_NAME": "FENGYUN 1C DEB", "OBJECT_ID": "1999-025YV", "EPOCH": "2025-12-07T23:12:27.312192", "MEAN_MOTION": 14.28710206, "ECCENTRICITY": 0.00379644, "INCLINATION": 98.7201, "RA_OF_ASC_NODE": 50.4094, "ARG_OF_PERICENTER": 122.5368, "MEAN_ANOMALY": 59.8933, "EPHEMERIS_TYPE": 0, "CLASSIFICATION_TYPE": "U", "NORAD_CAT_ID": 30284, "ELEMENT_SET_NO": 999, "REV_AT_EPOCH": 97447, "BSTAR": 0.0020099763, "MEAN_MOTION_DOT": 5.054e-05, "MEAN_MOTION_DDOT": 0}, "tle": {"line1": "1 30284U 99025YV  25341.96698278  .00005054  00000+0  20100-2 0  9990", "line2": "2 30284  98.7201  50.4094 0037964 122.5368  59.8933 14.28710206974473"}}, "geometry": {"type": "Point", "coordinates": [24.576621860505952, 70.98209844266319]}}, {"type": "Feature", "properties": {"norad_id": 30286, "name": "FENGYUN 1C DEB", "group": "fengyun-1c-debris", "lat": 22.423883368861507, "lon": -16.55629031100034, "alt_km": 873.9615053773696, "timestamp": "2025-12-08T13:49:32.067901+00:00", "meta": {"OBJECT_NAME": "FENGYUN 1C DEB", "OBJECT_ID": "1999-025YX", "EPOCH": "2025-12-08T00:24:52.031232", "MEAN_MOTION": 14.12720755, "ECCENTRICITY": 0.00645266, "INCLINATION": 98.69, "RA_OF_ASC_NODE": 346.52, "ARG_OF_PERICENTER": 146.0682, "MEAN_ANOMALY": 277.0312, "EPHEMERIS_TYPE": 0, "CLASSIFICATION_TYPE": "U", "NORAD_CAT_ID": 30286, "ELEMENT_SET_NO": 999, "REV_AT_EPOCH": 97392, "BSTAR": 0.00013573838, "MEAN_MOTION_DOT": 2.15e-06, "MEAN_MOTION_DDOT": 0}, "tle": {"line1": "1 30286U 99025YX  25342.01726888  .00000215  00000+0  13574-3 0  9990", "line2": "2 30286  98.6900 346.5200 0064526 146.0682 277.0312 14.12720755973929"}}, "geometry": {"type": "Point", "coordinates": [-16.55629031100034, 22.423883368861507]}}, {"type": "Feature", "properties": {"norad_id": 30287, "name": "FENGYUN 1C DEB", "group": "fengyun-1c-debris", "lat": -0.9552225225882868, "lon": -162.9308775971255, "alt_km": 1287.8521256394897, "timestamp": "2025-12-08T13:49:32.067911+00:00", "meta": {"OBJECT_NAME": "FENGYUN 1C DEB", "OBJECT_ID": "1999-025YY", "EPOCH": "2025-12-08T00:59:20.042880", "MEAN_MOTION": 13.68567981, "ECCENTRICITY": 0.0413608, "INCLINATION": 98.6379, "RA_OF_ASC_NODE": 16.7337, "ARG_OF_PERICENTER": 24.8099, "MEAN_ANOMALY": 40.414, "EPHEMERIS_TYPE": 0, "CLASSIFICATION_TYPE": "U", "NORAD_CAT_ID": 30287, "ELEMENT_SET_NO": 999, "REV_AT_EPOCH": 93794, "BSTAR": 0.001351586, "MEAN_MOTION_DOT": 2.074e-05, "MEAN_MOTION_DDOT": 0}, "tle": {"line1": "1 30287U 99025YY  25342.04120420  .00002074  00000+0  13516-2 0  9994", "line2": "2 30287  98.6379  16.7337 0413608  24.8099  40.4140 13.68567981937944"}}, "geometry": {"type": "Point", "coordinates": [-162.9308775971255, -0.9552225225882868]}}, {"type": "Feature", "properties": {"norad_id": 30288, "name": "FENGYUN 1C DEB", "group": "fengyun-1c-debris", "lat": -40.067903068115825, "lon": -124.12519257477965, "alt_km": 795.6749111049503, "timestamp": "2025-12-08T13:49:32.067921+00:00", "meta": {"OBJECT_NAME": "FENGYUN 1C DEB", "OBJECT_ID": "1999-025YZ", "EPOCH": "2025-12-08T04:40:00.617376", "MEAN_MOTION": 14.32517122, "ECCENTRICITY": 0.00203303, "INCLINATION": 99.395, "RA_OF_ASC_NODE": 63.4667, "ARG_OF_PERICENTER": 335.7701, "MEAN_ANOMALY": 78.1628, "EPHEMERIS_TYPE": 0, "CLASSIFICATION_TYPE": "U", "NORAD_CAT_ID": 30288, "ELEMENT_SET_NO": 999, "REV_AT_EPOCH": 97504, "BSTAR": 0.0022901592, "MEAN_MOTION_DOT": 6.177e-05, "MEAN_MOTION_DDOT": 0}, "tle": {"line1": "1 30288U 99025YZ  25342.19445159  .00006177  00000+0  22902-2 0  9997", "line2": "2 30288  99.3950  63.4667 0020330 335.7701  78.1628 14.32517122975049"}}, "geometry": {"type": "Point", "coordinates": [-124.12519257477965, -40.067903068115825]}}, {"type": "Feature", "properties": {"norad_id": 30289, "name": "FENGYUN 1C DEB", "group": "fengyun-1c-debris", "lat": 80.73110702842982, "lon": -26.62119841461562, "alt_km": 807.3932401217726, "timestamp": "2025-12-08T13:49:32.067931+00:00", "meta": {"OBJECT_NAME": "FENGYUN 1C DEB", "OBJECT_ID": "1999-025ZA", "EPOCH": "2025-12-08T00:44:08.062368", "MEAN_MOTION": 14.25758245, "ECCENTRICITY": 0.00371116, "INCLINATION": 98.927, "RA_OF_ASC_NODE": 78.4337, "ARG_OF_PERICENTER": 344.3083, "MEAN_ANOMALY": 189.8631, "EPHEMERIS_TYPE": 0, "CLASSIFICATION_TYPE": "U", "NORAD_CAT_ID": 30289, "ELEMENT_SET_NO": 999, "REV_AT_EPOCH": 97014, "BSTAR": 0.0025824291, "MEAN_MOTION_DOT": 6.136e-05, "MEAN_MOTION_DDOT": 0}, "tle": {"line1": "1 30289U 99025ZA  25342.03064887  .00006136  00000+0  25824-2 0  9997", "line2": "2 30289  98.9270  78.4337 0037111 344.3083 189.8631 14.25758245970149"}}, "geometry": {"type": "Point", "coordinates": [-26.62119841461562, 80.73110702842982]}}, {"type": "Feature", "properties": {"norad_id": 30290, "name": "FENGYUN 1C DEB", "group": "fengyun-1c-debris", "lat": 2.699184058240078, "lon": -97.30326400614274, "alt_km": 653.7504509572191, "timestamp": "2025-12-08T13:49:32.067942+00:00", "meta": {"OBJECT_NAME": "FENGYUN 1C DEB", "OBJECT_ID": "1999-025ZB", "EPOCH": "2025-12-08T00:47:27.748320", "MEAN_MOTION": 14.74428972, "ECCENTRICITY": 0.0016223, "INCLINATION": 102.6221, "RA_OF_ASC_NODE": 81.2494, "ARG_OF_PERICENTER": 65.5114, "MEAN_ANOMALY": 110.0852, "EPHEMERIS_TYPE": 0, "CLASSIFICATION_TYPE": "U", "NORAD_CAT_ID": 30290, "ELEMENT_SET_NO": 999, "REV_AT_EPOCH": 97809, "BSTAR": 0.0060904073, "MEAN_MOTION_DOT": 0.00040686, "MEAN_MOTION_DDOT": 0}, "tle": {"line1": "1 30290U 99025ZB  25342.03296005  .00040686  00000+0  60904-2 0  9994", "line2": "2 30290 102.6221  81.2494 0016223  65.5114 110.0852 14.74428972978092"}}, "geometry": {"type": "Point", "coordinates": [-97.30326400614274, 2.699184058240078]}}, {"type": "Feature", "properties": {"norad_id": 30291, "name": "FENGYUN 1C DEB", "group": "fengyun-1c-debris", "lat": -21.691824506481275, "lon": 49.026766236502404, "alt_km": 792.8053576409393, "timestamp": "2025-12-08T13:49:32.067953+00:00", "meta": {"OBJECT_NAME": "FENGYUN 1C DEB", "OBJECT_ID": "1999-025ZC", "EPOCH": "2025-12-07T15:42:29.200032", "MEAN_MOTION": 14.55030301, "ECCENTRICITY": 0.0112347, "INCLINATION": 97.2324, "RA_OF_ASC_NODE": 231.124, "ARG_OF_PERICENTER": 34.8674, "MEAN_ANOMALY": 22.2788, "EPHEMERIS_TYPE": 0, "CLASSIFICATION_TYPE": "U", "NORAD_CAT_ID": 30291, "ELEMENT_SET_NO": 999, "REV_AT_EPOCH": 97634, "BSTAR": 0.0048835597, "MEAN_MOTION_DOT": 0.0002293, "MEAN_MOTION_DDOT": 0}, "tle": {"line1": "1 30291U 99025ZC  25341.65450463  .00022930  00000+0  48836-2 0  9994", "line2": "2 30291  97.2324 231.1240 0112347  34.8674  22.2788 14.55030301976347"}}, "geometry": {"type": "Point", "coordinates": [49.026766236502404, -21.691824506481275]}}, {"type": "Feature", "properties": {"norad_id": 30293, "name": "FENGYUN 1C DEB", "group": "fengyun-1c-debris", "lat": -10.681063887510275, "lon": -8.660914271468783, "alt_km": 708.9499119122192, "timestamp": "2025-12-08T13:49:32.067963+00:00", "meta": {"OBJECT_NAME": "FENGYUN 1C DEB", "OBJECT_ID": "1999-025ZE", "EPOCH": "2025-12-07T18:48:29.476800", "MEAN_MOTION": 14.48899011, "ECCENTRICITY": 0.00766325, "INCLINATION": 99.2545, "RA_OF_ASC_NODE": 172.2333, "ARG_OF_PERICENTER": 129.3726, "MEAN_ANOMALY": 249.7459, "EPHEMERIS_TYPE": 0, "CLASSIFICATION_TYPE": "U", "NORAD_CAT_ID": 30293, "ELEMENT_SET_NO": 999, "REV_AT_EPOCH": 98905, "BSTAR": 0.0014647321, "MEAN_MOTION_DOT": 5.702e-05, "MEAN_MOTION_DDOT": 0}, "tle": {"line1": "1 30293U 99025ZE  25341.78367450  .00005702  00000+0  14647-2 0  9994", "line2": "2 30293  99.2545 172.2333 0076632 129.3726 249.7459 14.48899011989054"}}, "geometry": {"type": "Point", "coordinates": [-8.660914271468783, -10.681063887510275]}}, {"type": "Feature", "properties": {"norad_id": 30294, "name": "FENGYUN 1C DEB", "group": "fengyun-1c-debris", "lat": -38.61263954417663, "lon": -22.30906752483129, "alt_km": 640.2064833708637, "timestamp": "2025-12-08T13:49:32.067974+00:00", "meta": {"OBJECT_NAME": "FENGYUN 1C DEB", "OBJECT_ID": "1999-025ZF", "EPOCH": "2025-12-08T05:42:36.918720", "MEAN_MOTION": 14.34928929, "ECCENTRICITY": 0.01978257, "INCLINATION": 98.3557, "RA_OF_ASC_NODE": 330.6226, "ARG_OF_PERICENTER": 323.153, "MEAN_ANOMALY": 52.157, "EPHEMERIS_TYPE": 0, "CLASSIFICATION_TYPE": "U", "NORAD_CAT_ID": 30294, "ELEMENT_SET_NO": 999, "REV_AT_EPOCH": 98472, "BSTAR": 0.00077205468, "MEAN_MOTION_DOT": 2.69e-05, "MEAN_MOTION_DDOT": 0}, "tle": {"line1": "1 30294U 99025ZF  25342.23792730  .00002690  00000+0  77205-3 0  9992", "line2": "2 30294  98.3557 330.6226 0197825 323.1530  52.1570 14.34928929984729"}}, "geometry": {"type": "Point", "coordinates": [-22.30906752483129, -38.61263954417663]}}]}